OTTER                   
1 62623U 25009Q   26068.72300813  .00012198  00000+0  45151-3 0  9990
2 62623  97.4065 151.3812 0003573 310.7710  49.3219 15.27809545 63722
STARLINK-34844          
1 66486U 25263B   26068.10939454  .00045992  00000+0  16706-2 0  9995
2 66486  43.0041 353.6766 0001789 255.4562 104.6092 15.27577164 18763
